BEIDOU 3 (C01)          
1 36287U 10001A   21289.88829236 -.00000296  00000-0  00000+0 0  9993
2 36287   1.6834  41.4196 0002864  77.1003   7.3010  1.00268749 43075
BEIDOU 5 (C06)          
1 36828U 10036A   21289.02873961 -.00000147  00000-0  00000-0 0  9998
2 36828  54.1806 178.4805 0023210 178.6817 145.0662  1.00268700 41128
BEIDOU 6 (C04)          
1 37210U 10057A   21289.32126424 -.00000129  00000-0  00000-0 0  9995
2 37210   0.7500  38.5086 0004377 143.9752 118.1984  1.00272515 40187
BEIDOU 7 (C07)          
1 37256U 10068A   21289.03061692 -.00000186  00000-0  00000-0 0  9993
2 37256  50.6483 292.5624 0017582 190.6575  21.4071  1.00270453 39691
BEIDOU 8 (C08)          
1 37384U 11013A   21289.86051912 -.00000180  00000-0  00000+0 0  9994
2 37384  59.9470  56.6842 0019322 181.7324 203.2437  1.00274082 38584
BEIDOU 9 (C09)          
1 37763U 11038A   21289.03495488 -.00000106  00000-0  00000-0 0  9990
2 37763  54.4672 180.9417 0086553 226.5904  84.3885  1.00285401 37547
BEIDOU 10 (C10)         
1 37948U 11073A   21289.32759002 -.00000139  00000-0  00000+0 0  9996
2 37948  50.7594 292.1862 0078921 217.9109  88.5993  1.00265941 36301
BEIDOU 11 (C05)         
1 38091U 12008A   21289.88980809  .00000042  00000-0  00000+0 0  9999
2 38091   1.8147  70.4222 0003028 319.3364  14.9489  1.00275020 35384
BEIDOU 12 (C11)         
1 38250U 12018A   21289.77655144 -.00000112  00000-0  00000+0 0  9995
2 38250  56.7445   1.6087 0023555 245.4874  30.4362  1.86234330 64544
BEIDOU 13 (C12)         
1 38251U 12018B   21289.10686917 -.00000112  00000-0  00000-0 0  9996
2 38251  56.6650   0.9725 0014458 244.9128 346.3503  1.86234138 64532
BEIDOU 15 (C14)         
1 38775U 12050B   21288.97786535  .00000061  00000-0  00000-0 0  9996
2 38775  55.2637 119.9200 0012233 329.6464  12.3347  1.86231355 61907
BEIDOU 16 (C02)         
1 38953U 12059A   21289.08759014 -.00000192  00000-0  00000-0 0  9994
2 38953   1.3830  84.0851 0009357 281.6186 134.7598  1.00270669 32954
BEIDOU 17 (C31)         
1 40549U 15019A   21289.83438720 -.00000148  00000-0  00000+0 0  9998
2 40549  52.2986 315.5851 0038146 189.6777 273.8711  1.00295188 23997
BEIDOU 18 (C57)         
1 40748U 15037A   21288.76056587 -.00000112  00000-0  00000-0 0  9999
2 40748  55.9233 359.9987 0001011   6.2671 262.5871  1.86233486 42353
BEIDOU 19 (C58)         
1 40749U 15037B   21289.22741469 -.00000112  00000-0  00000-0 0  9992
2 40749  55.9264 359.9724 0003668 288.2213  69.1863  1.86232146 42355
BEIDOU 20 (C18)         
1 40938U 15053A   21289.44823716 -.00000117  00000-0  00000+0 0  9994
2 40938  51.8819 278.6730 0047736 196.5871 165.0798  1.00256314 22254
BEIDOU IGSO-6 (C13)     
1 41434U 16021A   21289.57724394 -.00000152  00000-0  00000+0 0  9997
2 41434  57.7425  55.3806 0044070 211.0925  61.0654  1.00288666 20382
BEIDOU-2 G7 (C03)       
1 41586U 16037A   21289.21309013 -.00000370  00000-0  00000-0 0  9993
2 41586   1.9591  69.3618 0008131  12.6531 130.2097  1.00274495 19694
BEIDOU-3 M1 (C19)       
1 43001U 17069A   21289.24664132  .00000063  00000-0  00000+0 0  9999
2 43001  55.4188 119.8781 0007487 292.8768  25.3512  1.86231836 26840
BEIDOU-3 M2 (C20)       
1 43002U 17069B   21289.18048802  .00000063  00000-0  00000-0 0  9994
2 43002  55.4179 119.9157 0006329 324.5960 352.5773  1.86231489 26837
BEIDOU-3 M3 (C27)       
1 43107U 18003A   21288.99540056 -.00000113  00000-0  00000-0 0  9992
2 43107  55.3685   1.0159 0003612  61.8904 297.1171  1.86232554 25590
BEIDOU-3 M4 (C28)       
1 43108U 18003B   21288.92850422 -.00000113  00000-0  00000-0 0  9997
2 43108  55.3625   1.0081 0003949 231.9278 127.4128  1.86232609 25594
BEIDOU-3 M5 (C21)       
1 43207U 18018A   21287.76587983  .00000052  00000-0  00000-0 0  9994
2 43207  55.3766 120.0516 0004741   1.6226 358.4452  1.86231583 24967
BEIDOU-3 M6 (C22)       
1 43208U 18018B   21288.36955767  .00000057  00000-0  00000-0 0  9996
2 43208  55.3764 120.0355 0005648 310.6407  49.3790  1.86231721 24974
BEIDOU-3 M7 (C29)       
1 43245U 18029A   21289.57377141 -.00000111  00000-0  00000+0 0  9998
2 43245  55.2950 358.7825 0001071 201.2856  95.7662  1.86232705 24147
BEIDOU-3 M8 (C30)       
1 43246U 18029B   21289.16037259 -.00000111  00000-0  10000-3 0  9992
2 43246  55.2911 358.8266 0002923 342.0560  84.1428  1.86233025 24135
BEIDOU IGSO-7 (C16)     
1 43539U 18057A   21289.92082106 -.00000146  00000-0  00000+0 0  9996
2 43539  55.0611 177.8711 0040592 223.3607  68.8016  1.00284887 12065
BEIDOU-3 M9 (C23)       
1 43581U 18062A   21289.51624019 -.00000047  00000-0  00000+0 0  9999
2 43581  54.3584 240.4430 0005872 277.9479 237.1896  1.86231934 21888
BEIDOU-3 M10 (C24)      
1 43582U 18062B   21289.10390968 -.00000043  00000-0  00000-0 0  9995
2 43582  54.3587 240.4470 0005756 337.2456 352.9199  1.86232364 21871
BEIDOU-3 M11 (C25)      
1 43602U 18067A   21289.16267367 -.00000045  00000-0  00000-0 0  9997
2 43602  54.4361 239.0374 0007164 354.1118  57.4113  1.86231579 21375
BEIDOU-3 M12 (C26)      
1 43603U 18067B   21289.04673869 -.00000044  00000-0  00000-0 0  9992
2 43603  54.4336 239.0096 0004623 338.8907 265.3346  1.86231487 21388
BEIDOU-3 M13 (C32)      
1 43622U 18072A   21289.44285221  .00000063  00000-0  00000+0 0  9993
2 43622  55.3431 119.5580 0004163 288.6234 251.1552  1.86231852 20904
BEIDOU-3 M14 (C33)      
1 43623U 18072B   21288.97403478  .00000061  00000-0  00000-0 0  9996
2 43623  55.3458 119.5649 0002976 336.6140 339.0782  1.86231867 20895
BEIDOU-3 M15 (C34)      
1 43647U 18078A   21289.15420134 -.00000112  00000-0  10000-3 0  9999
2 43647  55.1885 358.9759 0005206 353.8821 337.8308  1.86232851 20401
BEIDOU-3 M16 (C35)      
1 43648U 18078B   21289.37253347 -.00000112  00000-0  00000+0 0  9999
2 43648  55.1847 358.9742 0003071   8.0099  18.3282  1.86232340 20434
BEIDOU-3 G1 (C59)       
1 43683U 18085A   21289.24231513 -.00000295  00000-0  00000-0 0  9996
2 43683   0.9012 210.3591 0004471  26.3100  15.5815  1.00274774 10960
BEIDOU-3 M17 (C36)      
1 43706U 18093A   21288.94918479 -.00000041  00000-0  00000-0 0  9999
2 43706  54.4395 240.3304 0010811 276.4224  83.4255  1.86231793 19788
BEIDOU-3 M18 (C37)      
1 43707U 18093B   21289.72090815 -.00000049  00000-0  00000+0 0  9999
2 43707  54.4402 240.2944 0009841 295.8734 312.3597  1.86232185 19788
BEIDOU-3 IGSO-1 (C38)   
1 44204U 19023A   21288.76299131 -.00000212  00000-0  00000-0 0  9994
2 44204  56.1991  55.6137 0023036 186.3355 175.9607  1.00285163  9267
BEIDOU-2 G8             
1 44231U 19027A   21289.81734438 -.00000263  00000-0  00000+0 0  9994
2 44231   0.3365  45.4939 0007408 154.3843 264.4092  1.00274993  8981
BEIDOU-3 IGSO-2 (C39)   
1 44337U 19035A   21289.59146742 -.00000146  00000-0  00000+0 0  9990
2 44337  55.0954 173.9062 0020248 180.7099   3.2765  1.00275645  8606
BEIDOU-3 M23 (C45)      
1 44542U 19061A   21289.78844196 -.00000049  00000-0  10000-3 0  9993
2 44542  54.6655 240.3958 0009359 323.1451 283.0173  1.86231574 14048
BEIDOU-3 M24 (C46)      
1 44543U 19061B   21289.10337073 -.00000043  00000-0  10000-3 0  9995
2 44543  54.6633 240.3878 0006875 310.2291 107.6284  1.86231857 14032
BEIDOU-3 IGSO-3         
1 44709U 19073A   21289.84401914 -.00000158  00000-0  00000+0 0  9991
2 44709  57.6523 298.9050 0020112 186.5857 323.9042  1.00280537  7368
BEIDOU-3 M21            
1 44793U 19078A   21289.30866656 -.00000112  00000-0  10000-3 0  9993
2 44793  55.0379 359.0214 0004965   2.5030  27.0497  1.86232384 12904
BEIDOU-3 M22            
1 44794U 19078B   21288.86138422 -.00000112  00000-0  00000-0 0  9993
2 44794  55.0118 359.0336 0003122 355.0710   5.8046  1.86232864 12891
BEIDOU-3 M19            
1 44864U 19090A   21289.04339523  .00000061  00000-0  00000-0 0  9993
2 44864  55.2773 119.7951 0014329 265.4943  52.0050  1.86231974 12479
BEIDOU-3 M20            
1 44865U 19090B   21289.50690741  .00000064  00000-0  00000+0 0  9999
2 44865  55.2805 119.8112 0012681 282.3430  75.8224  1.86231929 12458
BEIDOU-3 G2             
1 45344U 20017A   21289.08680519 -.00000161  00000-0  00000-0 0  9998
2 45344   2.2872 341.1260 0003095 179.1947 335.7921  1.00271121  6163
BEIDOU-3 G3             
1 45807U 20040A   21287.62896565 -.00000373  00000-0  00000-0 0  9991
2 45807   2.0123 299.2055 0010419 337.3824  83.6137  1.00263891  4979
